EUTELSAT 5 WEST B       
1 44624U 19067A   26157.13259837 -.00000029  00000+0  00000+0 0  9992
2 44624   0.0644 341.3934 0003296  94.3124 221.5937  1.00272101 24320
TJS-4                   
1 44637U 19070A   26157.21850525 -.00000157  00000+0  00000+0 0  9992
2 44637   0.0185 278.9795 0005044 120.5368  17.3203  1.00270922 24426
BEIDOU-3 IGSO-3         
1 44709U 19073A   26136.81046384 -.00000217  00000+0  00000+0 0  9995
2 44709  54.8566 281.2355 0042953 189.4588 170.3676  1.00246251 24144
TIBA-1                  
1 44800U 19080A   26157.14628189  .00000169  00000+0  00000+0 0  9998
2 44800   0.0568  17.3438 0002210  70.8448 254.5382  1.00273708 23944
INMARSAT GX5            
1 44801U 19080B   26157.15739169  .00000088  00000+0  00000+0 0  9991
2 44801   0.0362   1.0148 0002586  73.5204 247.7585  1.00269993  6672
JCSAT-18 (KACIFIC 1)    
1 44868U 19091A   26156.87813825 -.00000187  00000+0  00000+0 0  9997
2 44868   0.0207 233.3227 0000024 185.3783 301.7513  1.00273149 23893
ELEKTRO-L 3             
1 44903U 19095A   26157.14863178 -.00000083  00000+0  00000+0 0  9993
2 44903   0.2285  81.1456 0001515 348.6449 314.2341  1.00272836 23590
SHIJIAN-20 (SJ-20)      
1 44910U 19097A   26157.00531161  .00000148  00000+0  00000+0 0  9993
2 44910   4.8899  75.1997 0013797  52.1722 173.7262  1.00274117 23581
TJS-5                   
1 44978U 20002A   26157.09420009 -.00000329  00000+0  00000+0 0  9994
2 44978   0.0392 282.9856 0007634 123.7050 349.2433  1.00271437 23598
GSAT-30                 
1 45026U 20005A   26157.15001846 -.00000151  00000+0  00000+0 0  9996
2 45026   0.0485 108.8496 0003563 333.9911 308.7421  1.00270300 23393
EUTELSAT KONNECT        
1 45027U 20005B   26157.13502505  .00000063  00000+0  00000+0 0  9994
2 45027   0.0709  98.2360 0000951 132.7185  79.4550  1.00270314 24224
JCSAT-17                
1 45245U 20013A   26157.01790069 -.00000307  00000+0  00000+0 0  9998
2 45245   5.3923 356.7548 0002958  76.7510 323.3937  1.00271493 23127
GEO-KOMPSAT-2B          
1 45246U 20013B   26156.65986398 -.00000331  00000+0  00000+0 0  9997
2 45246   0.0382 188.1064 0000416 156.0050 275.7933  1.00274429 23169
BEIDOU-3 G2             
1 45344U 20017A   26157.21850525 -.00000128  00000+0  00000+0 0  9999
2 45344   2.8419  47.1790 0002639  24.8298 341.3287  1.00274320 23155
AEHF-6 (USA 298)        
1 45465U 20022B   26157.01833403 -.00000286  00000+0  00000+0 0  9998
2 45465   2.5732 300.9872 0043147  17.6122  80.1302  1.00276723 22907
BEIDOU-3 G3             
1 45807U 20040A   26157.29805568 -.00000341  00000+0  00000+0 0  9991
2 45807   2.4203  67.4252 0003027 336.7042  68.4656  1.00273470 21967
APSTAR-6D               
1 45863U 20045A   26157.01755403 -.00000304  00000+0  00000+0 0  9999
2 45863   0.0488  94.1891 0002011 358.9489 301.6730  1.00272762 21741
KOREASAT 116            
1 45920U 20048A   26156.72884366 -.00000349  00000+0  00000+0 0  9993
2 45920   0.0163 298.6389 0001312 174.2669 159.8172  1.00268436 21522
EXPRESS 103             
1 45985U 20053A   26156.84191771 -.00000268  00000+0  00000+0 0  9994
2 45985   0.0182 280.8394 0000569 175.0042 198.0146  1.00271885 21539
EXPRESS 80              
1 45986U 20053B   26156.07365682 -.00000124  00000+0  00000+0 0  9995
2 45986   0.0185 301.9502 0001521 202.1803 215.8850  1.00273331 21511
BSAT-4B                 
1 46112U 20056A   26156.79883024 -.00000337  00000+0  00000+0 0  9990
2 46112   0.0441 166.0874 0004093 303.6770 181.8793  1.00273712 21271
MEV-2                   
1 46113U 20056B   26157.13337837  .00000002  00000+0  00000+0 0  9994
2 46113   0.0049 328.1828 0000303 180.6947 152.6898  1.00269853 80442
GALAXY 30 (G-30)        
1 46114U 20056C   26157.13447568  .00000050  00000+0  00000+0 0  9991
2 46114   0.0174 339.9437 0002336  93.7166 104.2968  1.00272503 21186
GAOFEN-13 01            
1 46610U 20071A   26156.80056359 -.00000350  00000+0  00000+0 0  9990
2 46610   0.4912  84.9567 0041835 122.7588  92.8203  1.00265267 20801
TIANTONG-1 2            
1 46916U 20082A   26157.30091569 -.00000343  00000+0  00000+0 0  9991
2 46916   0.8051 325.8901 0001521 106.8889  55.2152  1.00269395 20545
LUCAS (JDRS-1)          
1 47202U 20089A   26157.08025226 -.00000222  00000+0  00000+0 0  9995
2 47202   0.0344 273.3508 0002763 148.2303 312.5845  1.00269008 20304
SXM-7                   
1 47240U 20096A   26156.40371605 -.00000193  00000+0  00000+0 0  9992
2 47240   0.0333 112.5259 0004346  12.3808 189.1172  1.00273132  7322
CMS-01                  
1 47256U 20099A   26157.09350223 -.00000152  00000+0  00000+0 0  9996
2 47256   0.0703 100.9730 0003506 183.4800  86.7207  1.00270789 20088
TURKSAT 5A              
1 47306U 21001A   26156.97491759  .00000167  00000+0  00000+0 0  9997
2 47306   0.0178  53.0076 0000202  31.5006 191.8055  1.00272409 19855
TIANTONG-1 3            
1 47321U 21003A   26157.21850525 -.00000143  00000+0  00000+0 0  9999
2 47321   1.7651 338.6254 0003533 101.9263 334.2953  1.00272998 19856
TJS-6                   
1 47613U 21010A   26157.09751244  .00000056  00000+0  00000+0 0  9997
2 47613   0.2892  89.8415 0005375  54.6095 323.6795  1.00269486 19706
