OBJECT_NAME,OBJECT_ID,EPOCH,MEAN_MOTION,ECCENTRICITY,INCLINATION,RA_OF_ASC_NODE,ARG_OF_PERICENTER,MEAN_ANOMALY,EPHEMERIS_TYPE,CLASSIFICATION_TYPE,NORAD_CAT_ID,ELEMENT_SET_NO,REV_AT_EPOCH,BSTAR,MEAN_MOTION_DOT,MEAN_MOTION_DDOT
EUTELSAT 5 WEST B,2019-067A,2026-06-06T03:10:56.499168,1.00272101,.00032967,0.0644,341.3934,94.3124,221.5937,0,U,44624,999,2432,0,-.29E-6,0
TJS-4,2019-070A,2026-06-06T05:14:38.853600,1.00270922,.0005044,0.0185,278.9795,120.5368,17.3203,0,U,44637,999,2442,0,-.157E-5,0
BEIDOU-3 IGSO-3,2019-073A,2026-05-16T19:27:04.075776,1.00246251,.0042953,54.8566,281.2355,189.4588,170.3676,0,U,44709,999,2414,0,-.217E-5,0
TIBA-1,2019-080A,2026-06-06T03:30:38.755296,1.00273708,.00022107,0.0568,17.3438,70.8448,254.5382,0,U,44800,999,2394,0,.169E-5,0
INMARSAT GX5,2019-080B,2026-06-06T03:46:38.642016,1.00269993,.00025861,0.0362,1.0148,73.5204,247.7585,0,U,44801,999,667,0,.88E-6,0
JCSAT-18 (KACIFIC 1),2019-091A,2026-06-05T21:04:31.144800,1.00273149,.00000248,0.0207,233.3227,185.3783,301.7513,0,U,44868,999,2389,0,-.187E-5,0
ELEKTRO-L 3,2019-095A,2026-06-06T03:34:01.785792,1.00272836,.00015152,0.2285,81.1456,348.6449,314.2341,0,U,44903,999,2359,0,-.83E-6,0
SHIJIAN-20 (SJ-20),2019-097A,2026-06-06T00:07:38.923104,1.00274117,.0013797,4.8899,75.1997,52.1722,173.7262,0,U,44910,999,2358,0,.148E-5,0
TJS-5,2020-002A,2026-06-06T02:15:38.887776,1.00271437,.0007634,0.0392,282.9856,123.7050,349.2433,0,U,44978,999,2359,0,-.329E-5,0
GSAT-30,2020-005A,2026-06-06T03:36:01.594944,1.00270300,.00035633,0.0485,108.8496,333.9911,308.7421,0,U,45026,999,2339,0,-.151E-5,0
EUTELSAT KONNECT,2020-005B,2026-06-06T03:14:26.164320,1.00270314,.00009516,0.0709,98.2360,132.7185,79.4550,0,U,45027,999,2422,0,.63E-6,0
JCSAT-17,2020-013A,2026-06-06T00:25:46.619616,1.00271493,.00029586,5.3923,356.7548,76.7510,323.3937,0,U,45245,999,2312,0,-.307E-5,0
GEO-KOMPSAT-2B,2020-013B,2026-06-05T15:50:12.247872,1.00274429,.00004162,0.0382,188.1064,156.0050,275.7933,0,U,45246,999,2316,0,-.331E-5,0
BEIDOU-3 G2,2020-017A,2026-06-06T05:14:38.853600,1.00274320,.00026398,2.8419,47.1790,24.8298,341.3287,0,U,45344,999,2315,0,-.128E-5,0
AEHF-6 (USA 298),2020-022B,2026-06-06T00:26:24.060192,1.00276723,.00431477,2.5732,300.9872,17.6122,80.1302,0,U,45465,999,2290,0,-.286E-5,0
BEIDOU-3 G3,2020-040A,2026-06-06T07:09:12.010752,1.00273470,.00030273,2.4203,67.4252,336.7042,68.4656,0,U,45807,999,2196,0,-.341E-5,0
APSTAR-6D,2020-045A,2026-06-06T00:25:16.668192,1.00272762,.00020112,0.0488,94.1891,358.9489,301.6730,0,U,45863,999,2174,0,-.304E-5,0
KOREASAT 116,2020-048A,2026-06-05T17:29:32.092224,1.00268436,.0001312,0.0163,298.6389,174.2669,159.8172,0,U,45920,999,2152,0,-.349E-5,0
EXPRESS 103,2020-053A,2026-06-05T20:12:21.690144,1.00271885,.00005694,0.0182,280.8394,175.0042,198.0146,0,U,45985,999,2153,0,-.268E-5,0
EXPRESS 80,2020-053B,2026-06-05T01:46:03.949248,1.00273331,.00015217,0.0185,301.9502,202.1803,215.8850,0,U,45986,999,2151,0,-.124E-5,0
BSAT-4B,2020-056A,2026-06-05T19:10:18.932736,1.00273712,.00040936,0.0441,166.0874,303.6770,181.8793,0,U,46112,999,2127,0,-.337E-5,0
MEV-2,2020-056B,2026-06-06T03:12:03.891168,1.00269853,.00003034,0.0049,328.1828,180.6947,152.6898,0,U,46113,999,8044,0,.2E-7,0
GALAXY 30 (G-30),2020-056C,2026-06-06T03:13:38.698752,1.00272503,.00023363,0.0174,339.9437,93.7166,104.2968,0,U,46114,999,2118,0,.5E-6,0
GAOFEN-13 01,2020-071A,2026-06-05T19:12:48.694176,1.00265267,.00418357,0.4912,84.9567,122.7588,92.8203,0,U,46610,999,2080,0,-.35E-5,0
TIANTONG-1 2,2020-082A,2026-06-06T07:13:19.115616,1.00269395,.00015211,0.8051,325.8901,106.8889,55.2152,0,U,46916,999,2054,0,-.343E-5,0
LUCAS (JDRS-1),2020-089A,2026-06-06T01:55:33.795264,1.00269008,.00027638,0.0344,273.3508,148.2303,312.5845,0,U,47202,999,2030,0,-.222E-5,0
SXM-7,2020-096A,2026-06-05T09:41:21.066720,1.00273132,.00043462,0.0333,112.5259,12.3808,189.1172,0,U,47240,999,732,0,-.193E-5,0
CMS-01,2020-099A,2026-06-06T02:14:38.592672,1.00270789,.00035066,0.0703,100.9730,183.4800,86.7207,0,U,47256,999,2008,0,-.152E-5,0
TURKSAT 5A,2021-001A,2026-06-05T23:23:52.879776,1.00272409,.00002024,0.0178,53.0076,31.5006,191.8055,0,U,47306,999,1985,0,.167E-5,0
TIANTONG-1 3,2021-003A,2026-06-06T05:14:38.853600,1.00272998,.00035331,1.7651,338.6254,101.9263,334.2953,0,U,47321,999,1985,0,-.143E-5,0
TJS-6,2021-010A,2026-06-06T02:20:25.074816,1.00269486,.0005375,0.2892,89.8415,54.6095,323.6795,0,U,47613,999,1970,0,.56E-6,0
